{
"type": "FeatureCollection",
"name": "transit_oriented_development",
"crs": { "type": "name", "properties": { "name": "urn:ogc:def:crs:OGC:1.3:CRS84" } },
"features": [
{ "type": "Feature", "properties": { "OBJECTID_1": 2, "Station_Na": "State Center Metro", "Region": "Baltimore", "County": "Baltimore City", "Des_Category": "Designated Station Sites by an Agreement between MDOT and Local Jurisdiction", "Shape__Area": 172912.70703125, "Shape__Length": 1954.8449166487608, "MDOT_ID": 16, "GlobalID": "c8f987d1-5f89-4a31-bb42-368687374977" }, "geometry": { "type": "Polygon", "coordinates": [ [ [ -76.621414767350231, 39.304121754941441 ], [ -76.620973274340074, 39.304136306542162 ], [ -76.620860934117601, 39.30403617005264 ], [ -76.62079212370341, 39.303452904699405 ], [ -76.620734105307577, 39.303119950115047 ], [ -76.620477568192243, 39.301827476445276 ], [ -76.621893702120232, 39.300642973665795 ], [ -76.622158232829094, 39.300438764597217 ], [ -76.622793595989464, 39.299887283626191 ], [ -76.624053155128564, 39.300885605937317 ], [ -76.625876829343952, 39.302347119889724 ], [ -76.625202069945274, 39.302878032580473 ], [ -76.624193951187266, 39.302087180309897 ], [ -76.623887572524126, 39.302289480017706 ], [ -76.621414767350231, 39.304121754941441 ] ] ] } },
{ "type": "Feature", "properties": { "OBJECTID_1": 9, "Station_Na": "New Carrollton Metro MARC/Amtrak Station", "Region": "Washington", "County": "Prince George's County", "Des_Category": "Designated Station Sites by an Agreement between MDOT and Local Jurisdiction", "Shape__Area": 876657.359375, "Shape__Length": 6842.6475765893829, "MDOT_ID": 9, "GlobalID": "8ce16cad-af88-49fc-8a6c-ad983e669d0b" }, "geometry": { "type": "Polygon", "coordinates": [ [ [ -76.873046053458793, 38.94446920531113 ], [ -76.87594589759982, 38.944257807689233 ], [ -76.869954633957505, 38.949304205138823 ], [ -76.868888133567751, 38.948325800293993 ], [ -76.86910218337303, 38.948111530286816 ], [ -76.868736574832866, 38.947753603873132 ], [ -76.868128203869645, 38.946632698638851 ], [ -76.867671750174807, 38.945893313715281 ], [ -76.867184164856354, 38.945487573146117 ], [ -76.86660470777116, 38.945248570125614 ], [ -76.865994735205021, 38.945009527439076 ], [ -76.870634657260979, 38.944609567421018 ], [ -76.873046053458793, 38.94446920531113 ] ] ] } },
{ "type": "Feature", "properties": { "OBJECTID_1": 10, "Station_Na": "Naylor Road Metro Station", "Region": "Washington", "County": "Prince George's County", "Des_Category": "Designated Station Sites by an Agreement between MDOT and Local Jurisdiction", "Shape__Area": 438149.00390625, "Shape__Length": 2872.6194823840133, "MDOT_ID": 8, "GlobalID": "1e5abf3e-b7dd-4082-beb1-52f858e568a7" }, "geometry": { "type": "Polygon", "coordinates": [ [ [ -76.954020669739947, 38.846196273205095 ], [ -76.956024408615789, 38.846961278318091 ], [ -76.955941526598124, 38.8470648711873 ], [ -76.955825354643977, 38.847427514393615 ], [ -76.956222818928936, 38.847544242366737 ], [ -76.956901818343681, 38.847751745027892 ], [ -76.957564258551642, 38.847959237713098 ], [ -76.958143881992797, 38.848166695166221 ], [ -76.958442172635273, 38.847933647054177 ], [ -76.959203728918254, 38.84862043003438 ], [ -76.959402361325303, 38.848866608063858 ], [ -76.958789195832608, 38.849358610772875 ], [ -76.958242349057471, 38.84973405575797 ], [ -76.958192496756581, 38.850006052226078 ], [ -76.957894280677138, 38.850096616787212 ], [ -76.958175447442073, 38.850835044910703 ], [ -76.957098657860413, 38.850964184706271 ], [ -76.95570708283779, 38.851170914955901 ], [ -76.955061013143634, 38.8512354333131 ], [ -76.954100241363264, 38.851248012769339 ], [ -76.952891038214375, 38.851195718181586 ], [ -76.952178861652342, 38.851027038428462 ], [ -76.951880790839553, 38.850884432203614 ], [ -76.952013526084968, 38.8505606596257 ], [ -76.951831366829609, 38.850482866113396 ], [ -76.950804737793447, 38.849925454374713 ], [ -76.951219101207272, 38.849562942179048 ], [ -76.951749515320003, 38.849045038582972 ], [ -76.951418386296169, 38.848811744803577 ], [ -76.951385380779939, 38.848630388450346 ], [ -76.951518132826649, 38.848280709848453 ], [ -76.951253511904014, 38.847684756992287 ], [ -76.95224752066251, 38.847439058971972 ], [ -76.952744587356889, 38.847219057961908 ], [ -76.953440626563136, 38.846675307840108 ], [ -76.954020669739947, 38.846196273205095 ] ] ] } },
{ "type": "Feature", "properties": { "OBJECTID_1": 11, "Station_Na": "Branch Avenue Metro Station", "Region": "Washington", "County": "Prince George's County", "Des_Category": "Designated Station Sites by an Agreement between MDOT and Local Jurisdiction", "Shape__Area": 1057239.23046875, "Shape__Length": 6465.6843199894511, "MDOT_ID": 4, "GlobalID": "a9040d47-f2cf-4620-b1df-b9490bf05f24" }, "geometry": { "type": "Polygon", "coordinates": [ [ [ -76.916136299995188, 38.829571099483061 ], [ -76.914973994513218, 38.828507620073907 ], [ -76.914881573204184, 38.827530927906594 ], [ -76.917405952856981, 38.827475510892342 ], [ -76.917484343770639, 38.828109977267054 ], [ -76.916089611255217, 38.828225033569439 ], [ -76.916177829654885, 38.82890592847567 ], [ -76.917839862787559, 38.828844144723853 ], [ -76.917753038058819, 38.829231312717901 ], [ -76.916136299995188, 38.829571099483061 ] ] ] } },
{ "type": "Feature", "properties": { "OBJECTID_1": 13, "Station_Na": "Aberdeen MARC Station", "Region": "Baltimore", "County": "Harford County", "Des_Category": "Designated Station Sites by an Agreement between MDOT and Local Jurisdiction", "Shape__Area": 2074144.6159101129, "Shape__Length": 7094.5025236924257, "MDOT_ID": 1, "GlobalID": "82b1bd60-cf6e-4e1c-8054-23d8fe6f2280" }, "geometry": { "type": "Polygon", "coordinates": [ [ [ -76.160902919416159, 39.506814666716892 ], [ -76.164152841268859, 39.504249927775085 ], [ -76.165593399014284, 39.502263353124178 ], [ -76.169521189813139, 39.503422463229398 ], [ -76.167928969053804, 39.505904550147463 ], [ -76.172237107674121, 39.507464277928953 ], [ -76.171383670304394, 39.508910114036738 ], [ -76.172832578281614, 39.509412386124289 ], [ -76.171293216877345, 39.511975668225901 ], [ -76.170612678523639, 39.511821635575217 ], [ -76.170099138549347, 39.512778927739618 ], [ -76.167752052966051, 39.512088352029743 ], [ -76.159182491947305, 39.515982440218828 ], [ -76.158016644971127, 39.514899704226977 ], [ -76.156780809916384, 39.512988698319539 ], [ -76.155899805246193, 39.510486968165395 ], [ -76.158716953837754, 39.508523262503793 ], [ -76.15626938219151, 39.506642766299933 ], [ -76.157264955279103, 39.505228214751114 ], [ -76.157295887707804, 39.505246877954086 ], [ -76.157328064159586, 39.505264243940232 ], [ -76.157361393352758, 39.505280263444703 ], [ -76.157395780735072, 39.505294891022572 ], [ -76.157431128752492, 39.505308085177383 ], [ -76.157467337125723, 39.50531980847942 ], [ -76.157504303134644, 39.50533002767127 ], [ -76.157541921909754, 39.50533871376274 ], [ -76.157588953239426, 39.505347245774551 ], [ -76.15763660854968, 39.505353379498374 ], [ -76.157684682637722, 39.505357088523034 ], [ -76.157732968497541, 39.505358356878041 ], [ -76.157781258211159, 39.50535717910202 ], [ -76.15782934384417, 39.505353560266265 ], [ -76.157877018340713, 39.505347515953083 ], [ -76.157924076415554, 39.505339072188491 ], [ -76.157970315437453, 39.505328265330313 ], [ -76.158015536302287, 39.505315141911538 ], [ -76.158059544289799, 39.505299758440131 ], [ -76.158102149902675, 39.505282181155408 ], [ -76.158143169681935, 39.505262485743216 ], [ -76.158182426997243, 39.505240757009844 ], [ -76.158219752807497, 39.505217088516879 ], [ -76.158254986388542, 39.505191582178398 ], [ -76.160902919416159, 39.506814666716892 ] ] ] } },
{ "type": "Feature", "properties": { "OBJECTID_1": 14, "Station_Na": "North Bethesda Station (formerly White Flint)", "Region": "Washington", "County": "Montgomery County", "Des_Category": "Designated Station Sites by an Agreement between MDOT and Local Jurisdiction", "Shape__Area": 2676676.16015625, "Shape__Length": 7528.2322260752508, "MDOT_ID": 10, "GlobalID": "d7f48aec-34a3-43bc-bc61-9e2accaf54e4" }, "geometry": { "type": "Polygon", "coordinates": [ [ [ -77.120584904350693, 39.044791229753969 ], [ -77.120001291440246, 39.046249955984365 ], [ -77.119640343848573, 39.047360242447986 ], [ -77.11939109643761, 39.048513939877857 ], [ -77.119058656151765, 39.049994169076598 ], [ -77.118698329273471, 39.051496185949162 ], [ -77.11836593187472, 39.05301993559705 ], [ -77.118088768829679, 39.054195421400273 ], [ -77.117307238052547, 39.054196206165614 ], [ -77.115883452849516, 39.05402352028792 ], [ -77.114431797243398, 39.053872606075373 ], [ -77.113510849573487, 39.053960554931592 ], [ -77.112311230370892, 39.054331683845938 ], [ -77.1115580198461, 39.054593560959496 ], [ -77.102686031878207, 39.046894674189907 ], [ -77.104936124411111, 39.045269617201676 ], [ -77.104479511512992, 39.044980987120617 ], [ -77.103852253754411, 39.044981545272556 ], [ -77.103850404916088, 39.043714225501702 ], [ -77.10493383136658, 39.043713259326388 ], [ -77.104924788922773, 39.042325319863693 ], [ -77.104921678753144, 39.040214300687801 ], [ -77.106679613412439, 39.040103895562737 ], [ -77.106566326638131, 39.038994081037224 ], [ -77.107521231071672, 39.038997359626663 ], [ -77.107921777434612, 39.039930807329391 ], [ -77.109204679565678, 39.039907383663284 ], [ -77.109376284839328, 39.040262964663384 ], [ -77.113042488519227, 39.040250266248862 ], [ -77.113744909082342, 39.043231131816029 ], [ -77.113828842280242, 39.043361629059326 ], [ -77.116061233365386, 39.043228857273647 ], [ -77.116731334710622, 39.043424059673853 ], [ -77.116873516294064, 39.045034387067638 ], [ -77.120584904350693, 39.044791229753969 ] ] ] } },
{ "type": "Feature", "properties": { "OBJECTID_1": 15, "Station_Na": "Greenbelt Metro Station", "Region": "Washington", "County": "Prince George's County", "Des_Category": "Designated Station Sites by an Agreement between MDOT and Local Jurisdiction", "Shape__Area": 482618.921875, "Shape__Length": 3838.9856677203829, "MDOT_ID": 6, "GlobalID": "143b894d-d749-4684-b3e2-424ab9f4f271" }, "geometry": { "type": "Polygon", "coordinates": [ [ [ -76.908016120266751, 39.013662750064555 ], [ -76.904609865492972, 39.011410823403324 ], [ -76.90392463865841, 39.010535574950822 ], [ -76.904839217448924, 39.01100044213949 ], [ -76.905640873226574, 39.010358462936566 ], [ -76.906146113218426, 39.008930805632573 ], [ -76.908617185910629, 39.008861359248861 ], [ -76.909167523501949, 39.007897842911795 ], [ -76.910678732449909, 39.006952914581142 ], [ -76.910701990309164, 39.006649468483005 ], [ -76.912074053364535, 39.007186031971933 ], [ -76.914707520931742, 39.005188690203518 ], [ -76.912483747128832, 39.008917867826518 ], [ -76.912735223745997, 39.009078712797248 ], [ -76.908016120266751, 39.013662750064555 ] ] ] } },
{ "type": "Feature", "properties": { "OBJECTID_1": 16, "Station_Na": "Owings Mills Metro Station", "Region": "Baltimore", "County": "Baltimore County", "Des_Category": "Designated Station Sites by an Agreement between MDOT and Local Jurisdiction", "Shape__Area": 311825.6015625, "Shape__Length": 3348.6128418649837, "MDOT_ID": 12, "GlobalID": "c1c5f102-1e49-4816-9f38-430c57ce01dc" }, "geometry": { "type": "Polygon", "coordinates": [ [ [ -76.784488515880398, 39.408398348357125 ], [ -76.784410156412278, 39.408405353849481 ], [ -76.782217826733088, 39.407654916469568 ], [ -76.782068105639141, 39.407603665673591 ], [ -76.78177383788929, 39.407393400897455 ], [ -76.781524102899652, 39.407356206996539 ], [ -76.781151240036863, 39.407230397656441 ], [ -76.780265572092034, 39.406920606796348 ], [ -76.77968521718546, 39.406717603329739 ], [ -76.77884973265094, 39.406425350765851 ], [ -76.778855114942701, 39.40634591272385 ], [ -76.778868088664282, 39.406154419344389 ], [ -76.778912900691225, 39.405970047432554 ], [ -76.778980798071416, 39.405746510431271 ], [ -76.779028363982846, 39.405589911980272 ], [ -76.779121177547097, 39.405379890152716 ], [ -76.779248993141636, 39.405175654391797 ], [ -76.779600158276153, 39.404866025592284 ], [ -76.779992348141647, 39.404995449275702 ], [ -76.781043902160235, 39.404687123562042 ], [ -76.781624481939659, 39.404691061320747 ], [ -76.78238327221284, 39.404882644591311 ], [ -76.783467884472202, 39.40460867497054 ], [ -76.783787779656095, 39.405245458454722 ], [ -76.783982684274918, 39.405633428549358 ], [ -76.784088660922819, 39.405878942723035 ], [ -76.784474979212945, 39.406789688651443 ], [ -76.784805036538202, 39.407423406115917 ], [ -76.785125571989497, 39.408024164854176 ], [ -76.784780368659014, 39.407891269438537 ], [ -76.784488515880398, 39.408398348357125 ] ] ] } },
{ "type": "Feature", "properties": { "OBJECTID_1": 17, "Station_Na": "Savage / Annapolis Junction MARC Station", "Region": "Baltimore", "County": "Howard County", "Des_Category": "Designated Station Sites by an Agreement between MDOT and Local Jurisdiction", "Shape__Area": 84802.83984375, "Shape__Length": 1588.735373731125, "MDOT_ID": 14, "GlobalID": "fa781976-13cc-450a-8e56-2472ff949e8c" }, "geometry": { "type": "Polygon", "coordinates": [ [ [ -76.795732469158494, 39.126421230205239 ], [ -76.795574195816911, 39.126467593797031 ], [ -76.795451553284764, 39.126402801845877 ], [ -76.795379543372988, 39.126350058025672 ], [ -76.795309087752841, 39.126291336498589 ], [ -76.795192773856428, 39.126161978249094 ], [ -76.795150943824623, 39.126089658700621 ], [ -76.795096526920759, 39.125995582753426 ], [ -76.795028336803853, 39.125884926983332 ], [ -76.794923787067532, 39.125734577984844 ], [ -76.794831362665605, 39.125647031014751 ], [ -76.794778329194202, 39.125596797217106 ], [ -76.794646544354947, 39.125509267646329 ], [ -76.794510091412249, 39.125443254235883 ], [ -76.794451811959178, 39.12542162664294 ], [ -76.794370494508499, 39.125402350213456 ], [ -76.79421972509023, 39.12536822560849 ], [ -76.793038710126154, 39.125102231111825 ], [ -76.792983232815615, 39.1250836290004 ], [ -76.792798638111819, 39.124985553918492 ], [ -76.794607286059588, 39.124468472494598 ], [ -76.794720843240995, 39.124461001178624 ], [ -76.795433682305159, 39.124213877626786 ], [ -76.795542173731633, 39.124138426269354 ], [ -76.795538139473408, 39.124025195575861 ], [ -76.795504768854002, 39.123584455682661 ], [ -76.795304305936767, 39.123256552204488 ], [ -76.795626723087011, 39.123149114924665 ], [ -76.795635510188745, 39.123296223834949 ], [ -76.796649628242335, 39.123003800657159 ], [ -76.796676443013581, 39.123204651596986 ], [ -76.796691550977314, 39.123317827616631 ], [ -76.796705238090766, 39.123420356467754 ], [ -76.796720769611056, 39.123536696805388 ], [ -76.796744322870339, 39.123713122385858 ], [ -76.796747031814462, 39.12383026289875 ], [ -76.796749543924136, 39.123938993242355 ], [ -76.796752335027819, 39.124059763194865 ], [ -76.796740489387034, 39.124201793550178 ], [ -76.796727363194037, 39.124275157666503 ], [ -76.796685701571633, 39.124348034494631 ], [ -76.796582614954303, 39.12442558703161 ], [ -76.796497375559994, 39.124497563018103 ], [ -76.79636952993738, 39.124539529699248 ], [ -76.796353085975696, 39.124694262229013 ], [ -76.796420574344694, 39.124717101132866 ], [ -76.796458836279868, 39.124759023031558 ], [ -76.796474117566632, 39.124784163735896 ], [ -76.796483155373963, 39.124845169560885 ], [ -76.795732469158494, 39.126421230205239 ] ] ] } },
{ "type": "Feature", "properties": { "OBJECTID_1": 19, "Station_Na": "Dorsey MARC Station", "Region": "Baltimore", "County": "Howard County", "Des_Category": "Designated Station Sites by an Agreement between MDOT and Local Jurisdiction", "Shape__Area": 140356.91796875, "Shape__Length": 2039.6562773599348, "MDOT_ID": 5, "GlobalID": "27ef8841-3e9f-421c-b2cc-dbb37741fc60" }, "geometry": { "type": "Polygon", "coordinates": [ [ [ -76.745279548065994, 39.181803454868735 ], [ -76.745792296374248, 39.181114836626826 ], [ -76.745539761145153, 39.181069153493908 ], [ -76.745693067997166, 39.180875866204794 ], [ -76.745853038029111, 39.180626326609868 ], [ -76.746032473749835, 39.18039529949732 ], [ -76.746253101991698, 39.180193273669055 ], [ -76.746489241377034, 39.179984052155774 ], [ -76.746639570455073, 39.179788374575963 ], [ -76.746641957154736, 39.1797883139742 ], [ -76.747362254083953, 39.179811369354333 ], [ -76.747640281502768, 39.179728364349238 ], [ -76.747652677108618, 39.179724382531461 ], [ -76.747154068616652, 39.180579879081712 ], [ -76.746733498513194, 39.181302078228697 ], [ -76.747748126125529, 39.181654519782981 ], [ -76.747755383780813, 39.181657229633188 ], [ -76.747761483243664, 39.181666358675152 ], [ -76.747761934856769, 39.181666946056161 ], [ -76.747775544711956, 39.181683230854915 ], [ -76.747790027496052, 39.181696837699235 ], [ -76.747804205267059, 39.181707685688067 ], [ -76.747820502142716, 39.18171790678214 ], [ -76.747834200127755, 39.181725019989749 ], [ -76.74785339807633, 39.181733106154581 ], [ -76.747874117275231, 39.181739766944197 ], [ -76.747894455961074, 39.181744395646405 ], [ -76.747918291157305, 39.181747714914614 ], [ -76.747932646482951, 39.181748651052125 ], [ -76.747948238404817, 39.181748794453711 ], [ -76.747962422297192, 39.181748138535326 ], [ -76.747976891512138, 39.181746659912683 ], [ -76.747989174630234, 39.18174479195698 ], [ -76.748006473443382, 39.181741094475804 ], [ -76.74801703218219, 39.181738207630005 ], [ -76.748030947594586, 39.181733624613173 ], [ -76.748043236941228, 39.181729999237376 ], [ -76.748055520929867, 39.181727884462099 ], [ -76.748072808831068, 39.181727262221102 ], [ -76.748084623104219, 39.181728358626408 ], [ -76.7480949527137, 39.181730357129041 ], [ -76.748104220587848, 39.181733122619342 ], [ -76.74811870154808, 39.181738123337176 ], [ -76.748135965895031, 39.181744146113338 ], [ -76.748165457034702, 39.181754395490103 ], [ -76.748669990812644, 39.181929870146242 ], [ -76.75053916697081, 39.182579933376992 ], [ -76.750538950274347, 39.182580337367625 ], [ -76.750535794318921, 39.182586185744007 ], [ -76.750101035329877, 39.183396747546645 ], [ -76.750098302656042, 39.183401683418367 ], [ -76.750094646356786, 39.183407936067958 ], [ -76.749640903495688, 39.184166919996841 ], [ -76.749637212393992, 39.184173172556768 ], [ -76.749523266554689, 39.184121916182924 ], [ -76.749303477279014, 39.184023044265039 ], [ -76.749268742839305, 39.184008583626394 ], [ -76.749058615339848, 39.183921180843456 ], [ -76.748679364313375, 39.183723318192769 ], [ -76.748585204347208, 39.18367419040294 ], [ -76.748132536294264, 39.183438031244592 ], [ -76.747761179763302, 39.183244300918574 ], [ -76.747431692413528, 39.183072404460766 ], [ -76.746955963347446, 39.182796023339911 ], [ -76.746472421928374, 39.182515121262554 ], [ -76.746299390695171, 39.182414615205261 ], [ -76.746295377073508, 39.182412272595379 ], [ -76.746142295699372, 39.182316532256522 ], [ -76.745704416599025, 39.182083197047795 ], [ -76.74570033261152, 39.182080799317021 ], [ -76.745272752488106, 39.181812634404764 ], [ -76.74527596260188, 39.181808255462933 ], [ -76.745279548065994, 39.181803454868735 ] ] ] } },
{ "type": "Feature", "properties": { "OBJECTID_1": 20, "Station_Na": "Baltimore Penn Station", "Region": "Baltimore", "County": "Baltimore City", "Des_Category": "Designated Station Sites by an Agreement between MDOT and Local Jurisdiction", "Shape__Area": 901332.54296875, "Shape__Length": 8393.4979685886465, "MDOT_ID": 2, "GlobalID": "48000389-deea-496d-87db-7caff1a2518c" }, "geometry": { "type": "Polygon", "coordinates": [ [ [ -76.618664792964978, 39.304416867623011 ], [ -76.618614282134132, 39.304255217020248 ], [ -76.618487245289643, 39.303836473592717 ], [ -76.618464090431303, 39.303706844427111 ], [ -76.618442640450155, 39.30358854599784 ], [ -76.618395238856664, 39.303356465299103 ], [ -76.618313134163088, 39.303356986780138 ], [ -76.61806790665257, 39.303369918354228 ], [ -76.617410054442786, 39.303392144530683 ], [ -76.617402395140871, 39.303256387296614 ], [ -76.617397194315885, 39.303155988252513 ], [ -76.617387221639447, 39.303039443818648 ], [ -76.61737598310394, 39.30291191143143 ], [ -76.617370664695144, 39.302668917709845 ], [ -76.617339658290291, 39.302603610057218 ], [ -76.617329756023281, 39.30255570258894 ], [ -76.617321464426439, 39.302373443489351 ], [ -76.617319891087945, 39.302337572933006 ], [ -76.617497956470274, 39.302327857091207 ], [ -76.617630477859606, 39.302327259761675 ], [ -76.617775381954971, 39.302323099537709 ], [ -76.617854084777264, 39.302309283912294 ], [ -76.618009600544951, 39.302303612213564 ], [ -76.618345828713032, 39.302288575874044 ], [ -76.618609105400523, 39.302286340252934 ], [ -76.61867801816615, 39.302285706399047 ], [ -76.619526701070086, 39.301518684362598 ], [ -76.619558217789617, 39.301489788347659 ], [ -76.619850734631342, 39.301223732753776 ], [ -76.619908289603032, 39.301199038245251 ], [ -76.61994592185907, 39.301182858077411 ], [ -76.620052936639723, 39.301160382601424 ], [ -76.620164860886959, 39.301128655911484 ], [ -76.620312819895872, 39.301131365308265 ], [ -76.620372002778339, 39.301132584306153 ], [ -76.620656936954944, 39.301126986702641 ], [ -76.620886988116155, 39.301142314269093 ], [ -76.620929824994789, 39.301177656762526 ], [ -76.620305158606158, 39.301725245601169 ], [ -76.620757446458811, 39.30428311796279 ], [ -76.620018178691481, 39.304309148459915 ], [ -76.620022078975765, 39.30437600618383 ], [ -76.619679188659532, 39.304384120581723 ], [ -76.619118961612813, 39.304404269977404 ], [ -76.618664792964978, 39.304416867623011 ] ] ] } },
{ "type": "Feature", "properties": { "OBJECTID_1": 21, "Station_Na": "Bowie State MARC Station", "Region": "Washington", "County": "Prince George's County", "Des_Category": "Designated Station Sites by an Agreement between MDOT and Local Jurisdiction", "Shape__Area": 2622056.6015625, "Shape__Length": 9462.1374535427276, "MDOT_ID": 3, "GlobalID": "7306b453-7544-443d-932c-fc31e74f8aba" }, "geometry": { "type": "Polygon", "coordinates": [ [ [ -76.75635152276412, 39.01511696430569 ], [ -76.756355189127447, 39.015095970249028 ], [ -76.756469386118738, 39.014441995442432 ], [ -76.756475706815195, 39.014438281007926 ], [ -76.75646032722068, 39.014348935500337 ], [ -76.756576209536675, 39.014349176625586 ], [ -76.756607688051133, 39.01434924210551 ], [ -76.756617506399238, 39.014354942191098 ], [ -76.756627136096796, 39.014349282556061 ], [ -76.756691329773659, 39.014349416051452 ], [ -76.756711230377704, 39.014337647692145 ], [ -76.756831189210573, 39.014266714323881 ], [ -76.756882775599422, 39.014236210784105 ], [ -76.756930451693648, 39.014171015765413 ], [ -76.758602923744604, 39.013188025247096 ], [ -76.758285319741859, 39.012763035109913 ], [ -76.758271034644878, 39.01274391994253 ], [ -76.75832073990567, 39.012709567179698 ], [ -76.758313976976339, 39.012700766620142 ], [ -76.758410784176064, 39.012631897117188 ], [ -76.757236112304781, 39.01100325439922 ], [ -76.75736294469192, 39.010978953024853 ], [ -76.758940488066571, 39.010676678186705 ], [ -76.759110150039461, 39.010647159122144 ], [ -76.759281358215532, 39.010623695599762 ], [ -76.759453756857155, 39.010606334624903 ], [ -76.759626990258639, 39.010595114196775 ], [ -76.759800698154365, 39.010590055191749 ], [ -76.759910447655315, 39.01058593848726 ], [ -76.760019594139408, 39.010576084023839 ], [ -76.760127649022095, 39.010560538544773 ], [ -76.760234121337461, 39.010539370410413 ], [ -76.760338533882717, 39.0105126759359 ], [ -76.760440415154804, 39.010480573970575 ], [ -76.760539305104984, 39.010443211313699 ], [ -76.760740891938354, 39.010360432999427 ], [ -76.761442430170192, 39.010072352779041 ], [ -76.76154429453733, 39.010027029387601 ], [ -76.761641996747088, 39.009976435740718 ], [ -76.761735091492994, 39.009920802452669 ], [ -76.76182314955345, 39.009860385393978 ], [ -76.761886088990465, 39.009814169022903 ], [ -76.761952522070303, 39.009858836220211 ], [ -76.762002581166897, 39.009813515119824 ], [ -76.762586297360869, 39.009285045975382 ], [ -76.763354672825727, 39.008626848386797 ], [ -76.763347742175384, 39.008687568547863 ], [ -76.763346138491968, 39.008688948963702 ], [ -76.763450048909789, 39.009158179048015 ], [ -76.76342972986302, 39.009483021321834 ], [ -76.76328396690495, 39.009617087386751 ], [ -76.763278906273996, 39.00975431613027 ], [ -76.763270330126417, 39.009891464790826 ], [ -76.763258232665862, 39.010028534256463 ], [ -76.763244825054514, 39.010124504774097 ], [ -76.763239102964818, 39.010165448959896 ], [ -76.763220528039469, 39.010669274890404 ], [ -76.7631885084065, 39.011537727946923 ], [ -76.763168309537591, 39.012085594192499 ], [ -76.763286546909541, 39.012849830800135 ], [ -76.763296245435512, 39.012912526709847 ], [ -76.763305256458665, 39.013050071184509 ], [ -76.763152868949078, 39.013458683325538 ], [ -76.763147774949516, 39.013596760456053 ], [ -76.763199253905682, 39.013859103847253 ], [ -76.763225903951408, 39.01398576967329 ], [ -76.763284137792184, 39.01410930958712 ], [ -76.763336475382445, 39.014230973749179 ], [ -76.763380147526263, 39.014351880789505 ], [ -76.763376940006395, 39.014415777488594 ], [ -76.763358384257828, 39.014863402745497 ], [ -76.763377166944906, 39.014908743801946 ], [ -76.763403260545303, 39.014968159615243 ], [ -76.763430657853448, 39.015027220432628 ], [ -76.763459392543353, 39.01508587047045 ], [ -76.763489432182212, 39.015144141190795 ], [ -76.763520774567937, 39.015202001059585 ], [ -76.763553386301282, 39.015259424785363 ], [ -76.763599902147277, 39.015336892781185 ], [ -76.763625173973438, 39.01537925438263 ], [ -76.763651359210797, 39.015421261999656 ], [ -76.763678531766558, 39.015462913979405 ], [ -76.763706587809821, 39.015504183086861 ], [ -76.763735557360675, 39.015545070282947 ], [ -76.763765480926779, 39.015585547723219 ], [ -76.763796284612326, 39.015625614357191 ], [ -76.763827968415171, 39.015665271084806 ], [ -76.763860533577713, 39.015704491784234 ], [ -76.763893982514574, 39.015743244930981 ], [ -76.763928277106942, 39.015781534951422 ], [ -76.763963416209648, 39.015819359140004 ], [ -76.763999403284529, 39.015856718403946 ], [ -76.764036236204902, 39.015893557788132 ], [ -76.764073880241, 39.015929904246406 ], [ -76.764120861490952, 39.015973491375902 ], [ -76.764557797278229, 39.016255200564601 ], [ -76.764597480062761, 39.016281694197659 ], [ -76.764637728274906, 39.016307612430545 ], [ -76.764678577620757, 39.016332982359017 ], [ -76.764719990081133, 39.016357777782282 ], [ -76.764761933240834, 39.016382023857545 ], [ -76.764804441826584, 39.016405694530228 ], [ -76.764847445398416, 39.016428790559104 ], [ -76.764890979849369, 39.016451282288706 ], [ -76.764934971182981, 39.016473198395978 ], [ -76.764979493474954, 39.01649448588087 ], [ -76.765024440411693, 39.016515168851384 ], [ -76.765096135735774, 39.01654650272949 ], [ -76.765279575896656, 39.016674889720285 ], [ -76.76546301556715, 39.016803275516814 ], [ -76.765502781032822, 39.016831505781795 ], [ -76.766088146243575, 39.017247051925352 ], [ -76.766138962801847, 39.017283397010566 ], [ -76.766367966912426, 39.017447168272099 ], [ -76.766597191819386, 39.01763197362056 ], [ -76.766963736272473, 39.018047881265005 ], [ -76.767099276432702, 39.018107624006667 ], [ -76.767234815668587, 39.018167365687361 ], [ -76.767974044127897, 39.018665008747874 ], [ -76.768457989714292, 39.019014368490211 ], [ -76.768562500660835, 39.019140411364049 ], [ -76.768740323003243, 39.019354898994607 ], [ -76.768821301954787, 39.019452543685247 ], [ -76.768896969237588, 39.01954378382414 ], [ -76.769115749039628, 39.019893413123825 ], [ -76.769178707452838, 39.019994028927563 ], [ -76.769560137448849, 39.020724011322635 ], [ -76.769898747036564, 39.021361959035026 ], [ -76.76998418226907, 39.021522310316058 ], [ -76.770003144533689, 39.021557877618747 ], [ -76.770094003799358, 39.021728399789104 ], [ -76.770279762413807, 39.022061788575847 ], [ -76.770764856055408, 39.022141954041679 ], [ -76.770792947656062, 39.022249970192448 ], [ -76.770807064341085, 39.022304389175702 ], [ -76.770379659115179, 39.022574030679003 ], [ -76.770554757541547, 39.022894933440277 ], [ -76.77072803013543, 39.023481409367974 ], [ -76.770824260669386, 39.023807115216364 ], [ -76.770930453800034, 39.024169398306306 ], [ -76.771083132385868, 39.024690169998586 ], [ -76.771236321525066, 39.024956015853064 ], [ -76.771284863987773, 39.025040256002271 ], [ -76.770417078282762, 39.025245087994364 ], [ -76.768923389178212, 39.026984743366889 ], [ -76.767202276036087, 39.025755891662875 ], [ -76.766926473869802, 39.025558967427251 ], [ -76.766115122447815, 39.02497964519366 ], [ -76.765209557709241, 39.024333033623478 ], [ -76.762949757501133, 39.024858412488115 ], [ -76.76065670750917, 39.025391469093456 ], [ -76.759853914850993, 39.024373318496771 ], [ -76.759813609083537, 39.024322199097618 ], [ -76.759532683479961, 39.023965902185253 ], [ -76.759692520008969, 39.023743834980024 ], [ -76.759737711199335, 39.023681048931472 ], [ -76.761328570420019, 39.021470708749384 ], [ -76.761419588522955, 39.021344247509653 ], [ -76.761725991269898, 39.020916460962304 ], [ -76.76150212755843, 39.020772392097662 ], [ -76.761015341194295, 39.020458527927488 ], [ -76.760566034121609, 39.020889480407476 ], [ -76.760100529999107, 39.021341441029143 ], [ -76.758501510602756, 39.022978555121583 ], [ -76.756111421376914, 39.025425403801151 ], [ -76.756085017860187, 39.025405537110203 ], [ -76.75563504299744, 39.025066965951076 ], [ -76.755201775312727, 39.024744735466179 ], [ -76.754934870657323, 39.02454965894718 ], [ -76.75478048065618, 39.02443681719496 ], [ -76.754142548730115, 39.023919838436235 ], [ -76.753502041720324, 39.023407818706367 ], [ -76.75287944798427, 39.022908820306995 ], [ -76.752307962597754, 39.022451799407165 ], [ -76.75173398895403, 39.021994796500898 ], [ -76.75136135233619, 39.021730647735325 ], [ -76.755695263360948, 39.017581256398955 ], [ -76.755875398495377, 39.017408776991097 ], [ -76.755891544048851, 39.017166503124336 ], [ -76.755907690647234, 39.016924229245085 ], [ -76.755917195572295, 39.016780571219684 ], [ -76.755959663824143, 39.016728288005758 ], [ -76.755995613190265, 39.016673109464612 ], [ -76.756024723289102, 39.016615529483566 ], [ -76.756046732561089, 39.016556062790436 ], [ -76.756061445215352, 39.016495239563234 ], [ -76.756068728921662, 39.01643360452389 ], [ -76.756069219731756, 39.016290309628033 ], [ -76.756067120979168, 39.016233863560913 ], [ -76.756072601237804, 39.016177554902455 ], [ -76.75608560178712, 39.016122003292622 ], [ -76.756105979654862, 39.016067816483378 ], [ -76.756133511082183, 39.016015590346825 ], [ -76.756331205373911, 39.015779984076516 ], [ -76.756361471174955, 39.015742175776246 ], [ -76.756384239624879, 39.015701292679175 ], [ -76.75639901229755, 39.015658232769063 ], [ -76.756405464961915, 39.015613943035099 ], [ -76.756437241755194, 39.015388863041828 ], [ -76.756458926378741, 39.01526879569856 ], [ -76.756486031045569, 39.015149399927864 ], [ -76.756498658916215, 39.015109488402985 ], [ -76.7565161868161, 39.015070720302511 ], [ -76.756343968599396, 39.015160223913412 ], [ -76.75635152276412, 39.01511696430569 ] ] ] } },
{ "type": "Feature", "properties": { "OBJECTID_1": 22, "Station_Na": "Odenton MARC Station", "Region": "Baltimore", "County": "Anne Arundel County", "Des_Category": "Designated Station Sites by an Agreement between MDOT and Local Jurisdiction", "Shape__Area": 2168008.71484375, "Shape__Length": 9748.9368101462314, "MDOT_ID": 11, "GlobalID": "0e9cc347-dfc2-45c4-88f5-a67e883ba2fb" }, "geometry": { "type": "Polygon", "coordinates": [ [ [ -76.713728217777103, 39.087747971801264 ], [ -76.71364367798536, 39.088364442933681 ], [ -76.71361702315339, 39.088657405186439 ], [ -76.713546414599364, 39.088923893372048 ], [ -76.713492264746932, 39.089128260804593 ], [ -76.713471215258622, 39.089438115066017 ], [ -76.713427238579101, 39.089932988983328 ], [ -76.713404657302092, 39.090187101229319 ], [ -76.713391056387096, 39.090340156125002 ], [ -76.713391146350418, 39.090356272643426 ], [ -76.713393707069287, 39.09037023777951 ], [ -76.713398808779829, 39.090384415416629 ], [ -76.713406300112979, 39.090397931403537 ], [ -76.713419759781615, 39.090414513017002 ], [ -76.71343222563452, 39.09042557747091 ], [ -76.713451585168116, 39.090438120792768 ], [ -76.713467817332287, 39.090445656094687 ], [ -76.713479297709995, 39.090449707169462 ], [ -76.713491192879829, 39.090452942227714 ], [ -76.713503416235866, 39.090455339438279 ], [ -76.713515860377143, 39.090456874216464 ], [ -76.713533367264446, 39.090458158339302 ], [ -76.713555320385709, 39.090461303584839 ], [ -76.713569644411876, 39.090464468906731 ], [ -76.713583614843202, 39.090468467507563 ], [ -76.713597160087076, 39.090473281196232 ], [ -76.713610201669283, 39.09047887825291 ], [ -76.713628648728942, 39.090488675463206 ], [ -76.713645553289211, 39.090500037200968 ], [ -76.713655856903088, 39.090508411946956 ], [ -76.71366531899308, 39.090517366554892 ], [ -76.713677810705519, 39.090531784741437 ], [ -76.713684943309659, 39.090541969557897 ], [ -76.713688132188707, 39.090547210126736 ], [ -76.713696142045308, 39.090563448692805 ], [ -76.713700145086975, 39.090574622149447 ], [ -76.71370408835331, 39.090591745274949 ], [ -76.713705321420221, 39.090603307414703 ], [ -76.713705061841139, 39.090620704021681 ], [ -76.713703481520866, 39.090632239467745 ], [ -76.713699027386568, 39.090649284418042 ], [ -76.713692117786053, 39.090665829725758 ], [ -76.713686194821392, 39.090676470868097 ], [ -76.713675420476932, 39.090691707768222 ], [ -76.713662496887906, 39.090705893579575 ], [ -76.713647593562456, 39.090718843149986 ], [ -76.713636650047974, 39.0907267110506 ], [ -76.714121099771248, 39.091168347251646 ], [ -76.714319024094948, 39.091183826698881 ], [ -76.714318170438702, 39.091396405482797 ], [ -76.711852321477451, 39.090961356856212 ], [ -76.711587015595882, 39.092024384826978 ], [ -76.713049173479291, 39.092211962176812 ], [ -76.712812969805924, 39.093288331802562 ], [ -76.712104639570342, 39.093194059865269 ], [ -76.711339654958991, 39.093092243041944 ], [ -76.711315594441913, 39.093196619392913 ], [ -76.711178825603028, 39.093793577596529 ], [ -76.711106780383531, 39.093783529839655 ], [ -76.711062977963792, 39.094006517655821 ], [ -76.709713258320178, 39.093839274170179 ], [ -76.709665214093775, 39.094035826773016 ], [ -76.709654744198147, 39.094078661984277 ], [ -76.70950659706098, 39.094809080987389 ], [ -76.709385807953865, 39.094748369889061 ], [ -76.709161606428026, 39.094635013916985 ], [ -76.708575959224333, 39.093318996082594 ], [ -76.708481887706625, 39.093110729373798 ], [ -76.708371575344941, 39.093053671706585 ], [ -76.708308937904633, 39.093021194897013 ], [ -76.708538934962903, 39.092154615159195 ], [ -76.707819450438322, 39.09203786486119 ], [ -76.707646329959474, 39.092683211597482 ], [ -76.707318211253309, 39.092512249218643 ], [ -76.706901396305653, 39.092295286036723 ], [ -76.70671024471568, 39.092228948892121 ], [ -76.706618060409255, 39.09233358702491 ], [ -76.706489214324193, 39.092428600017193 ], [ -76.706243970901269, 39.092566220958659 ], [ -76.706053935555886, 39.092665847071387 ], [ -76.705833235894261, 39.092784462305012 ], [ -76.705649198286082, 39.092912702461106 ], [ -76.705471158847345, 39.093069557947899 ], [ -76.705342131047942, 39.093207470022882 ], [ -76.705172199846629, 39.093173956826192 ], [ -76.70381617593064, 39.092950947993074 ], [ -76.703508267887344, 39.092914453095233 ], [ -76.703194811674777, 39.093544826008262 ], [ -76.703101616347382, 39.093940469052349 ], [ -76.702941547620483, 39.09454382012467 ], [ -76.702297276068848, 39.094321403829504 ], [ -76.702382565741246, 39.094184464079319 ], [ -76.701799240534513, 39.093967602858413 ], [ -76.701957719805165, 39.093787852491701 ], [ -76.702105755931655, 39.093569581273115 ], [ -76.702212070468448, 39.093437146862293 ], [ -76.70205777915254, 39.09343675455078 ], [ -76.702192012418024, 39.093262039833569 ], [ -76.702271800045665, 39.093158193413906 ], [ -76.702346055913722, 39.093055796689917 ], [ -76.702432466008389, 39.092936637992167 ], [ -76.70198439632523, 39.092965767808664 ], [ -76.70161305419775, 39.093235399005458 ], [ -76.701497962478783, 39.093263776602157 ], [ -76.701426589715652, 39.093285097819638 ], [ -76.701385252584146, 39.093272448752543 ], [ -76.701350986009587, 39.093218604086921 ], [ -76.701323551601305, 39.093180904834782 ], [ -76.701279922900383, 39.093166458187071 ], [ -76.701227087695173, 39.09315377974314 ], [ -76.701181242652666, 39.093119616901014 ], [ -76.701070749290963, 39.093148005808224 ], [ -76.700948856753499, 39.093153069804956 ], [ -76.700707349332859, 39.093168580139604 ], [ -76.700468171158576, 39.093176928230307 ], [ -76.700265730301993, 39.093197913539647 ], [ -76.700148489990994, 39.093190445804026 ], [ -76.700033616878144, 39.093166856907779 ], [ -76.699983029321544, 39.093166727361599 ], [ -76.699845011069854, 39.093178917513256 ], [ -76.699785995070101, 39.093174764011273 ], [ -76.699723987170302, 39.093078936932471 ], [ -76.699553654228666, 39.093040515070818 ], [ -76.699395491997635, 39.09297047982529 ], [ -76.699292820783569, 39.092941369850877 ], [ -76.699028965491379, 39.092627138344433 ], [ -76.698748527051904, 39.092581788932954 ], [ -76.698608909289106, 39.092530819893007 ], [ -76.698501095263339, 39.092471935198802 ], [ -76.698457688797447, 39.092370116305744 ], [ -76.698688927248298, 39.092135377844926 ], [ -76.698633644235272, 39.092107323297014 ], [ -76.698957143073997, 39.091733613017837 ], [ -76.699206250771226, 39.091445838595227 ], [ -76.699198992804966, 39.091317597571724 ], [ -76.699086708575834, 39.091277126082808 ], [ -76.698700175784737, 39.091137801303468 ], [ -76.698735489548056, 39.091077130122407 ], [ -76.698772680348611, 39.091013210949548 ], [ -76.698613969590838, 39.090957117654249 ], [ -76.698649306921354, 39.090896609602957 ], [ -76.698686748208587, 39.090832495624284 ], [ -76.698301405143098, 39.090696854157216 ], [ -76.698338331843914, 39.090633928023848 ], [ -76.698376021136312, 39.090569696773294 ], [ -76.698412066357164, 39.090508261880586 ], [ -76.698030006578904, 39.090372221694182 ], [ -76.698066635098044, 39.090309847066493 ], [ -76.698103986586005, 39.090246243789728 ], [ -76.698140405400821, 39.090184225315809 ], [ -76.698029678046311, 39.090037868944336 ], [ -76.698202273683734, 39.089744021530002 ], [ -76.697753183549253, 39.089585599232464 ], [ -76.697788995900737, 39.089522394734203 ], [ -76.697635286136702, 39.089114656530491 ], [ -76.697925561274147, 39.088588192753036 ], [ -76.698069854236749, 39.088337710202453 ], [ -76.697105625895816, 39.087999662626466 ], [ -76.696956929055375, 39.087947211455919 ], [ -76.697627636048267, 39.08676473713345 ], [ -76.697711086225809, 39.086228561223209 ], [ -76.698086361275671, 39.08559654698108 ], [ -76.698116775150879, 39.085535425491237 ], [ -76.697849506544216, 39.085460254997869 ], [ -76.697878730691443, 39.085403612010047 ], [ -76.697996418142552, 39.085197831728543 ], [ -76.697455871058651, 39.08496935700574 ], [ -76.697282494815809, 39.085020271241291 ], [ -76.697748001119066, 39.084366619487788 ], [ -76.698155030750044, 39.084544060528941 ], [ -76.69822184179084, 39.084447264462476 ], [ -76.698353173896265, 39.084250618884084 ], [ -76.698468580051994, 39.084077817941527 ], [ -76.698608662311514, 39.083862674904893 ], [ -76.69821307082573, 39.083708699361367 ], [ -76.698366398402854, 39.083493054741716 ], [ -76.698794751065904, 39.083662389908277 ], [ -76.698930428855419, 39.083445935280054 ], [ -76.698952540770875, 39.083408705021967 ], [ -76.699000423382472, 39.083430233049278 ], [ -76.69912394559006, 39.08348576805956 ], [ -76.699203128958104, 39.083526871660702 ], [ -76.699273732090873, 39.083563521209804 ], [ -76.699356720231904, 39.083607703522638 ], [ -76.699423230287735, 39.083643113774365 ], [ -76.699491215222864, 39.083681258116712 ], [ -76.699550314227764, 39.083716163746566 ], [ -76.699615270167357, 39.08375452815023 ], [ -76.699692414795749, 39.083800949054378 ], [ -76.699757599577026, 39.083840173334146 ], [ -76.699816944336177, 39.083783198085307 ], [ -76.699843708261966, 39.083760425820671 ], [ -76.700037216378263, 39.083890352134411 ], [ -76.700512211444547, 39.083966518305793 ], [ -76.700631291704681, 39.083642699899997 ], [ -76.700742244817221, 39.083357271884552 ], [ -76.700791872565802, 39.083225588131747 ], [ -76.700843058991978, 39.083082431156782 ], [ -76.700896763187515, 39.082932242581471 ], [ -76.701583148685657, 39.083159824678603 ], [ -76.701508395049871, 39.083297941354751 ], [ -76.70143388546613, 39.08343622164751 ], [ -76.701818305528491, 39.083562676963645 ], [ -76.7018668794218, 39.083578616070795 ], [ -76.702089013218256, 39.083651353882757 ], [ -76.702371596374235, 39.08374388066936 ], [ -76.702580196783785, 39.083812182715469 ], [ -76.70312302740831, 39.083989921514963 ], [ -76.703748887447944, 39.084192019334267 ], [ -76.703778593290991, 39.084133910477043 ], [ -76.703943302036592, 39.083834718685978 ], [ -76.704037273947478, 39.083664020933711 ], [ -76.704183947110849, 39.083398348156031 ], [ -76.704286695906134, 39.083432095990986 ], [ -76.70441244269297, 39.083473398286799 ], [ -76.704883352702524, 39.083629809093132 ], [ -76.70492750396474, 39.083550183639012 ], [ -76.705058829827237, 39.083313362671966 ], [ -76.705084097144123, 39.083267799541957 ], [ -76.705184769022239, 39.083086256699623 ], [ -76.705230616241934, 39.083003578954703 ], [ -76.705261336644128, 39.082948180988311 ], [ -76.705299935920863, 39.082878573695552 ], [ -76.705904846428709, 39.083082501741558 ], [ -76.705969583075628, 39.083103857544039 ], [ -76.705901535059709, 39.083229863576236 ], [ -76.705795597454753, 39.083426034606184 ], [ -76.705938933997942, 39.083475456072136 ], [ -76.705678507871724, 39.083945806629686 ], [ -76.70612715945191, 39.084096895762123 ], [ -76.706424013400806, 39.084196994602472 ], [ -76.706698551376434, 39.084289058366927 ], [ -76.707038551603262, 39.084403073933565 ], [ -76.707356503802714, 39.084509692754715 ], [ -76.707768746585913, 39.083772858048327 ], [ -76.708096387443959, 39.083215445299224 ], [ -76.708404283024663, 39.082751215897602 ], [ -76.708548804465636, 39.082561708995563 ], [ -76.708762447916129, 39.082280107780043 ], [ -76.709046899205077, 39.081906964637689 ], [ -76.709152132364224, 39.081937769650189 ], [ -76.709183486045006, 39.081893408005527 ], [ -76.709360901974335, 39.081653417657954 ], [ -76.709613501679542, 39.081311721395366 ], [ -76.709605095967902, 39.081305737213995 ], [ -76.709773550972542, 39.081079568498645 ], [ -76.709997632937288, 39.080855863160323 ], [ -76.710219114032057, 39.080634754282272 ], [ -76.710455575654933, 39.080419908389551 ], [ -76.710354951206128, 39.081135738928133 ], [ -76.709916320455221, 39.084701979435089 ], [ -76.70930272082208, 39.08668784411654 ], [ -76.713728217777103, 39.087747971801264 ] ] ] } },
{ "type": "Feature", "properties": { "OBJECTID_1": 23, "Station_Na": "Reisterstown Plaza Metro Station", "Region": "Baltimore", "County": "Baltimore City", "Des_Category": "Designated Station Sites by an Agreement between MDOT and Local Jurisdiction", "Shape__Area": 1355584.94921875, "Shape__Length": 5369.7965991402116, "MDOT_ID": 13, "GlobalID": "f1058d17-2187-4500-9168-d7da2cf64f02" }, "geometry": { "type": "Polygon", "coordinates": [ [ [ -76.710111315448572, 39.350297576438479 ], [ -76.709633330913178, 39.350635323855315 ], [ -76.709615600088895, 39.350647827374836 ], [ -76.709023875492505, 39.351065870621063 ], [ -76.708783919771093, 39.351235439825402 ], [ -76.708560390033199, 39.351393362150226 ], [ -76.708130725037861, 39.351696924767239 ], [ -76.707569982193974, 39.352098824188673 ], [ -76.70646108053613, 39.352812148128855 ], [ -76.7063217492733, 39.35291502945767 ], [ -76.706127636297879, 39.35305327185737 ], [ -76.705465625398574, 39.352794036414934 ], [ -76.704856000751832, 39.352490179075055 ], [ -76.704836168882906, 39.3525736728878 ], [ -76.704357777784296, 39.352303828150283 ], [ -76.704357413598927, 39.352018160347377 ], [ -76.702016826038701, 39.350653909087377 ], [ -76.701111990158537, 39.350654603841399 ], [ -76.700458191496153, 39.35029446615529 ], [ -76.699391691742917, 39.349677061935033 ], [ -76.698970747372655, 39.349445283685732 ], [ -76.698695047166865, 39.349293496270697 ], [ -76.698612530967651, 39.349248067603277 ], [ -76.698084241329852, 39.348957228583537 ], [ -76.697667431589807, 39.348727734184067 ], [ -76.697420797730956, 39.348592585796816 ], [ -76.695534141476301, 39.347550678643174 ], [ -76.695033842167405, 39.347273112952209 ], [ -76.695016204252283, 39.347263349102647 ], [ -76.695015407368217, 39.346585519258497 ], [ -76.694883792682177, 39.346529527259577 ], [ -76.695015211035297, 39.346425703770883 ], [ -76.695077250125308, 39.346380401552175 ], [ -76.695193483408161, 39.3462965808802 ], [ -76.695367937209042, 39.346191772350679 ], [ -76.695555517265504, 39.346101712066705 ], [ -76.695754202151264, 39.346027358529085 ], [ -76.695961796967268, 39.345969552703778 ], [ -76.696011670478825, 39.345957519849918 ], [ -76.69611772173397, 39.345938768535817 ], [ -76.696225753104258, 39.345928698186547 ], [ -76.697802611257117, 39.345577167866402 ], [ -76.69781153712772, 39.345573566223621 ], [ -76.698400717013655, 39.345426054964506 ], [ -76.698883245122147, 39.345305228653885 ], [ -76.699681069819022, 39.34514130581239 ], [ -76.701707045993942, 39.344725007241216 ], [ -76.702698438179482, 39.344521293516891 ], [ -76.702869684504762, 39.344486102984995 ], [ -76.703291166416449, 39.344399505422906 ], [ -76.703623723153527, 39.344329372063029 ], [ -76.704347069342106, 39.344130090044239 ], [ -76.704364774421478, 39.344124148234975 ], [ -76.704453506579242, 39.344094363105469 ], [ -76.705023356761174, 39.343869705278891 ], [ -76.705559836198105, 39.34360001768755 ], [ -76.705589130381242, 39.343587241963064 ], [ -76.705617950679709, 39.343577677991661 ], [ -76.705647894172941, 39.34357055963779 ], [ -76.705678674445437, 39.343565860062192 ], [ -76.705709869849372, 39.343563713319917 ], [ -76.705741231083351, 39.343564094466764 ], [ -76.705772332316002, 39.343567027657571 ], [ -76.705802895252617, 39.343572486074741 ], [ -76.705832529322308, 39.343580383170782 ], [ -76.705860948430754, 39.3435906146454 ], [ -76.705887838470744, 39.343603117562374 ], [ -76.705912883301892, 39.343617759623605 ], [ -76.705935832125959, 39.343634316818928 ], [ -76.705956441901705, 39.343652652529599 ], [ -76.705974496499195, 39.343672574358322 ], [ -76.706292966756976, 39.343971391682658 ], [ -76.706587337294494, 39.344250599166806 ], [ -76.706704736051506, 39.344359254941629 ], [ -76.706908787811429, 39.34458179034857 ], [ -76.707026676500973, 39.344743930350106 ], [ -76.70708180487037, 39.344819705693951 ], [ -76.707221744861286, 39.345070302808466 ], [ -76.707327240347979, 39.345330917613524 ], [ -76.707362497936586, 39.345449580790032 ], [ -76.707377233096253, 39.345511693866278 ], [ -76.707379550290725, 39.345532921102667 ], [ -76.707389198388583, 39.345577092255844 ], [ -76.707441774284661, 39.345817616568382 ], [ -76.707543215892315, 39.346281549859611 ], [ -76.707543776327412, 39.346754155742737 ], [ -76.708002136315201, 39.346515396096351 ], [ -76.708119810620715, 39.346464198317676 ], [ -76.708166484551512, 39.346447250537338 ], [ -76.708293765334602, 39.346390404461062 ], [ -76.708304959945366, 39.346385381779143 ], [ -76.708329199493988, 39.346372236147431 ], [ -76.708468510033953, 39.346296504158083 ], [ -76.708622501493835, 39.346193025023197 ], [ -76.708761760572699, 39.346077704977397 ], [ -76.708884691056056, 39.345951661542429 ], [ -76.708965348725229, 39.34584802827208 ], [ -76.708990016707006, 39.345816352611628 ], [ -76.709016599231404, 39.345774961784279 ], [ -76.709088600478836, 39.345678004912976 ], [ -76.709191852042309, 39.345565092999209 ], [ -76.709239441919181, 39.345523175801624 ], [ -76.709309777048304, 39.345461221083319 ], [ -76.70944098829618, 39.345367457576209 ], [ -76.70944694143715, 39.345364425079914 ], [ -76.709548645266082, 39.345318690822154 ], [ -76.709655934686438, 39.345281452552406 ], [ -76.709767680465546, 39.345253120007641 ], [ -76.709882566945438, 39.345234020500747 ], [ -76.709999433329102, 39.345224343017541 ], [ -76.710092242954047, 39.345225834744532 ], [ -76.710180761953282, 39.345231187208462 ], [ -76.710255946860613, 39.345245127742331 ], [ -76.710335525882002, 39.345265941803184 ], [ -76.710417302938083, 39.345293653697297 ], [ -76.710499054349057, 39.345328228219998 ], [ -76.710591844476951, 39.345378285680134 ], [ -76.710660242187231, 39.345426581538952 ], [ -76.710722017124411, 39.345478294688391 ], [ -76.71079257810861, 39.345542052512698 ], [ -76.710856475879154, 39.345610901109758 ], [ -76.710915938443804, 39.345683253457871 ], [ -76.710970950978421, 39.345762459383799 ], [ -76.710983926791556, 39.345789395523319 ], [ -76.711008258833161, 39.345839889639535 ], [ -76.711038861303706, 39.345931032499642 ], [ -76.71104669897754, 39.346185392255677 ], [ -76.711045563995171, 39.346463804947241 ], [ -76.711048289802463, 39.346506587840445 ], [ -76.711053871478285, 39.346594400392881 ], [ -76.711039617955393, 39.346838437355792 ], [ -76.711052457940639, 39.347054126112788 ], [ -76.711041756794231, 39.347293833802951 ], [ -76.711034797121542, 39.347404869036524 ], [ -76.711015002055873, 39.347472935305504 ], [ -76.710952522103256, 39.347654504372102 ], [ -76.710906644555095, 39.34774523938836 ], [ -76.710785527045715, 39.347955628377342 ], [ -76.710734799215047, 39.348029739928897 ], [ -76.71067190211339, 39.34810516901981 ], [ -76.710602094387497, 39.348176543946877 ], [ -76.710528820531565, 39.348238438109505 ], [ -76.710436359107177, 39.348315166107689 ], [ -76.710342078730264, 39.348404024327628 ], [ -76.710253119907676, 39.348488830542166 ], [ -76.710176152194322, 39.348563346461859 ], [ -76.710079129018567, 39.348630838445075 ], [ -76.709917781089004, 39.348742646627009 ], [ -76.709647061357131, 39.348940942964568 ], [ -76.709574638860019, 39.348985212034698 ], [ -76.709380987778289, 39.349101562275543 ], [ -76.708993439990905, 39.349250927389235 ], [ -76.709171699981937, 39.349407868479858 ], [ -76.70924071744416, 39.349473221245461 ], [ -76.709676013916805, 39.349885399224327 ], [ -76.710111315448572, 39.350297576438479 ] ] ] } }
]
}
