{
"type": "FeatureCollection",
"name": "enterprise_zone_focus_areas",
"crs": { "type": "name", "properties": { "name": "urn:ogc:def:crs:OGC:1.3:CRS84" } },
"features": [
{ "type": "Feature", "properties": { }, "geometry": { "type": "MultiPolygon", "coordinates": [ [ [ [ -76.858647945028011, 38.926323599942506 ], [ -76.858087959534402, 38.923241450499617 ], [ -76.85418934845643, 38.924005074948766 ], [ -76.852977465442592, 38.919288179076652 ], [ -76.854522590189177, 38.917379356547421 ], [ -76.859796192285415, 38.917851340555458 ], [ -76.854094004865431, 38.915782737502603 ], [ -76.863250089687028, 38.91444989145036 ], [ -76.866197781934474, 38.919320653584585 ], [ -76.86378994932501, 38.92039090060441 ], [ -76.862709218546044, 38.926316141831251 ], [ -76.858647945028011, 38.926323599942506 ] ] ], [ [ [ -76.573544186702904, 39.242219144130068 ], [ -76.569699425134644, 39.242800473608447 ], [ -76.569511835343746, 39.240709476370341 ], [ -76.566853668315758, 39.242237875852439 ], [ -76.567813863149894, 39.240300856113528 ], [ -76.565317681232244, 39.241025904879727 ], [ -76.561845121330606, 39.235172287390256 ], [ -76.558326430244179, 39.234091399927507 ], [ -76.558902562955026, 39.232203018904904 ], [ -76.563075042515351, 39.230527128806415 ], [ -76.562176335565752, 39.227491592832124 ], [ -76.564310570984063, 39.224563056122591 ], [ -76.570590289791781, 39.22743059127648 ], [ -76.576937108259671, 39.225621185120175 ], [ -76.579279626161423, 39.22687744415763 ], [ -76.580172640487064, 39.230962406471676 ], [ -76.58243145337066, 39.23168818286544 ], [ -76.580876153406876, 39.229645147859927 ], [ -76.582149468609714, 39.228998669036585 ], [ -76.580396501554176, 39.228649265129398 ], [ -76.579869066514888, 39.2233459675898 ], [ -76.577632871413513, 39.223287725904171 ], [ -76.579939063241824, 39.222408850350341 ], [ -76.576527421692859, 39.221141199606976 ], [ -76.579058788823559, 39.221018408043484 ], [ -76.578320297303222, 39.215705276594356 ], [ -76.581212731482566, 39.217756509435439 ], [ -76.581054834605084, 39.215946853203562 ], [ -76.589065977071201, 39.21320074676737 ], [ -76.597245610246944, 39.220893444940529 ], [ -76.588637418696933, 39.222111041571466 ], [ -76.589195213199559, 39.228246092837253 ], [ -76.588063573096804, 39.222143348505206 ], [ -76.586954867881559, 39.222204164668831 ], [ -76.587190608270006, 39.230312380541086 ], [ -76.588788197324092, 39.229975780504311 ], [ -76.590607077365291, 39.232841754360862 ], [ -76.609360363830433, 39.237899424869099 ], [ -76.610929009166085, 39.233769392449666 ], [ -76.612528369697941, 39.234796994998199 ], [ -76.611002105979068, 39.236858697357363 ], [ -76.617853074255748, 39.237139744233914 ], [ -76.614039983691143, 39.241050395540398 ], [ -76.609981705156272, 39.240581894071035 ], [ -76.608819688522189, 39.243964182545909 ], [ -76.607855390183801, 39.242800597446603 ], [ -76.602461582722754, 39.24467366817295 ], [ -76.601447232951713, 39.242961968160643 ], [ -76.600899313629014, 39.246441419440906 ], [ -76.59830016322023, 39.248443181370547 ], [ -76.597318385463055, 39.246425511231976 ], [ -76.598398040958642, 39.244488818627651 ], [ -76.593103135315431, 39.245402807644176 ], [ -76.591445262119237, 39.243587316870276 ], [ -76.592507292668941, 39.249904556258826 ], [ -76.590765280568291, 39.250863313592454 ], [ -76.588651752215597, 39.24938999759604 ], [ -76.587381434690855, 39.250402990276491 ], [ -76.589057514941217, 39.250620545182592 ], [ -76.587060712778211, 39.251006400371573 ], [ -76.585512257976902, 39.245090443664083 ], [ -76.585046705182577, 39.24952321049399 ], [ -76.583515921141213, 39.248127493119661 ], [ -76.583151462054033, 39.249603282250554 ], [ -76.579462556390951, 39.249071382104617 ], [ -76.58046635275403, 39.246585435630443 ], [ -76.578793551354451, 39.248635044596419 ], [ -76.573912804989831, 39.247024022496511 ], [ -76.572306398072897, 39.243336269312728 ], [ -76.573544186702904, 39.242219144130068 ] ] ] ] } }
]
}
